#dP2020  3  3  0  0  0.00000000     289 ORBIT ITRF  BHN ESOC                    
## 2095 172800.00000000   300.00000000 58911 0.0000000000000                    
+  107   G18G14G13G28G21G11G22G07G05G20G31G17G15G16G29G12G19                    
+        G23G02G25G01G30G24G27G06G09G03G32G26G08G10G04R09R20                    
+        R19R13R01R22R23R16R03R07R02R17R14R11R18R21R05R15R12                    
+        R04E11E12E19E18E14E26E24E30E08E09E01E02E07E03E04E05                    
+        E21E25E27E31E36E13E15E33C11C12C14C19C20C27C28C22C21                    
+        C29C30C23C24C26C25C32C33C35C34C36C37C06C07C08C09C10                    
+        C13C16J01J02J03  0  0  0  0  0  0  0  0  0  0  0  0                    
++         4  5  5  4  5  5  4  5  5  4  5  5  4  4  5  5  5                    
++         4  5  4  5  5  4  4  5  5  4 10  4  4  5  5  5  6                    
++         6  6  6  5  5  5  6  5  6  5  5  6  5  5  5  6  5                    
++         5  5  5  5  5  4  5  5  5  5  5  5  5  5  5  5  5                    
++         5  4  5  5  5  5  5  5  5  6  6  6  6  5  6  6  6                    
++         6  5  6  6  6  6  6  6  6  6  6  6  6  6  6  7  6                    
++         7  6  7  6  6  0  0  0  0  0  0  0  0  0  0  0  0                    
%c M  cc GPS ccc cccc cccc cccc cccc ccccc ccccc ccccc ccccc                    
%c cc cc ccc ccc cccc cccc cccc cccc ccccc ccccc ccccc ccccc                    
%f  0.0000000  0.000000000  0.00000000000  0.000000000000000                    
%f  0.0000000  0.000000000  0.00000000000  0.000000000000000                    
%i    0    0    0    0      0      0      0      0         0                    
%i    0    0    0    0      0      0      0      0         0                    
/* CCCCCCCCCCCCCCCCCCCCCCCCCCCCCCCCCCCCCCCCCCCCCCCCCCCCCCCCCCCCCCCCCCCCCCCCCCCCC
/* CCCCCCCCCCCCCCCCCCCCCCCCCCCCCCCCCCCCCCCCCCCCCCCCCCCCCCCCCCCCCCCCCCCCCCCCCCCCC
/* CCCCCCCCCCCCCCCCCCCCCCCCCCCCCCCCCCCCCCCCCCCCCCCCCCCCCCCCCCCCCCCCCCCCCCCCCCCCC
/* PCV:IGS        OL/AL:EOT11A   NONE     YN ORB:CoN CLK:CoN                    
*  2020  3  3 20 35  0.00000000                                                 
PG18  17206.653253 -19966.834300   2339.261611      5.416962                    
PG14  16040.283181   9888.338112 -18456.903536    -28.659520                    
PG13 -14021.233966   5721.177247  21692.491246     -8.483329                    
PG28 -20825.675539 -13090.055516  10418.533332    735.363139                    
PG21   3626.979170  18522.738990  19577.111172    -32.785858                    
PG11  12569.036557 -21499.730181   9145.192567   -344.290227                    
PG22  15876.192919 -11616.748806 -17567.449106   -785.291180                    
PG07  -1277.200513 -18846.889953  18764.956618   -227.689129                    
PG05 -24782.151807   2916.426514   9243.750097     -8.529279                    
PG20  12108.279771  14462.457141  18692.422570    527.879941                    
PG31  18382.620133    -99.964462 -19371.424816    -27.085437                    
PG17 -13806.498538 -19190.310415 -11730.836273    226.051749                    
PG15  -8454.774641  15704.263187  19260.501068   -247.472681                    
PG16  24835.106688     -2.041198   9818.270179   -131.000901                    
PG29   3536.507600  25748.993451  -5460.494031    -47.665490                    
PG12 -10693.438456  12047.042101 -21316.087754    144.723881                    
PG19 -15489.751236 -11979.006636 -18238.465403   -190.668305                    
PG23    781.583028 -23068.784803 -12435.621522   -132.242762                    
PG02 -19666.532911   9874.440369 -14174.228783   -415.475982                    
PG25   2851.899162  15643.058521 -21545.537133    -10.740392                    
PG01  13709.696602 -21855.286832  -5722.929179   -314.110906                    
PG30 -11153.469235 -11069.715779  21438.270952   -167.053318                    
PG24 -13772.829529  22272.992680  -3224.583127     -9.876232                    
PG27  14816.995944  -2203.554978  21830.604062   -228.194786                    
PG06 -16363.382705  -2274.980707 -20752.218738   -222.658150                    
PG09  -6457.844722 -25437.894184  -4081.353230   -168.692900                    
PG03   7214.871020 -13841.029819 -21533.666576   -108.806260                    
PG32  15679.247648  17611.362631 -12294.424832    227.354166                    
PG26  26377.320545   4016.984001   -114.773919    160.342361                    
PG08   9580.047575 -14100.638123  20325.840611    -25.834422                    
PG10  21307.589992  11642.248622  11116.754492   -265.269195                    
PG04   2470.489716 -22801.360238 -13366.454228    -57.199282                    
PR09  -9159.569915  -8281.515585  22338.726259    119.930905                    
PR20   -783.779020 -22470.795878 -11984.999115   -405.666498                    
PR19   8143.350852 -23000.828454   7438.340495    -82.016070                    
PR13   5526.250888   9590.705061 -23003.275998    -35.621011                    
PR01  -3215.281000  11415.970065  22583.300820     57.967388                    
PR22 -11060.752925  13424.663148 -18701.562784    -16.415028                    
PR23  -5093.065469  24982.058655   -925.774486    290.203765                    
PR16  12475.599367 -13878.197567  17427.611173     -1.881425                    
PR03  20783.239618  12779.419892  -7486.819760     10.887819                    
PR07 -20752.786762 -12364.951044   8163.963346    -33.947920                    
PR02  14557.282927  18484.150612   9963.102755    414.874386                    
PR17   9082.069444   7700.434608  22568.128302    305.983103                    
PR14  20600.828097    165.363730 -15030.348361     48.732036                    
PR11 -23463.793092   9798.910362  -2276.927140    -15.519379                    
PR18  11249.458440 -10599.094050  20291.715740     27.185016                    
PR21  -9231.729712  -6819.734155 -22776.087680   -108.870694                    
PR05    783.298258 -12833.338408 -22016.125053     46.060364                    
PR15  23701.839489  -9329.748948   1448.444564    106.039771                    
PR12 -13059.485904  13483.182038 -17236.428091    110.832591                    
PR04  14995.484878    -63.297957 -20609.250074     40.725339                    
PE11  -6780.743319 -19534.779169 -21168.383966   1551.058704                    
PE12   8116.772477 -27910.884680  -5518.390831   5922.119495                    
PE19  15224.214932  -7825.292392 -24145.128285     -1.283097                    
PE18  13560.380411  -6403.654013  17964.338346  -1024.873981                    
PE14 -20234.363921   4428.638058 -25183.806166   -927.085621                    
PE26  17487.437877   -293.884268  23891.622033   3461.047910                    
PE24 -15924.674276 -12788.927503  21399.900905   5579.220362                    
PE30  -6360.578628  16569.322020 -23698.517536   4096.068862                    
PE08   2635.966194  23921.986516  17226.593893   6211.897497                    
PE09 -17526.962303 -23863.118100    -50.226034   6137.234996                    
PE01  24770.624356 -10696.493329  12177.596371   -807.218201                    
PE02 -24698.627059  10745.414990 -12260.876637    116.861266                    
PE07  17304.426731  24009.004052    141.014632   -349.180315                    
PE03 -13948.284667   9930.432963  24144.891383   -272.819450                    
PE04  -2228.794137 -23927.079100 -17278.248341   -477.768807                    
PE05 -22115.151996 -10034.333102  16925.713718   -400.339986                    
PE21  28880.474645   1226.395937  -6392.742160   -585.944675                    
PE25 -28847.182311  -1297.270768   6493.734855   -505.630179                    
PE27  16115.822846  12619.306184 -21388.110187    269.873037                    
PE31   6073.204684 -16562.716005  23771.924465   -471.890599                    
PE36 -17227.823127    133.362182 -24058.417169    590.693594                    
PE13   6617.599944  19706.036480  21089.336437    398.904047                    
PE15  -7860.367102  27959.783671   5752.211246    875.237542                    
PE33  17756.784762 -19786.630322  13014.791665   -469.834044                    
PC11   9723.696310  21424.716065  15034.101004   -218.380948                    
PC12  -1529.867218  27738.343461  -2489.009210    326.637098                    
PC14  19718.023198  17791.501431   8508.553631    203.901162                    
PC19 -24574.571910 -13230.616652    496.853737    341.821570                    
PC20 -12654.168609 -19400.414198 -15565.177538   -805.612489                    
PC27   7828.962927 -24381.269135  11051.648206    288.789553                    
PC28  15314.072961  -7612.581273  22058.477996    279.734453                    
PC22 -22458.963371    683.857599  16573.738654   -888.363720                    
PC21  -7300.799171  14189.903709  22912.261202   -135.568303                    
PC29 -14333.459648 -12991.661781 -20111.754253    195.853323                    
PC30  -5030.858247 -26747.369340  -6103.254537    281.044693                    
PC23  25406.896937 -10181.089720  -5453.769017   -909.394266                    
PC24   1711.235090  17073.096160 -22014.135339   -919.652007                    
PC26 -15632.132510  19650.290850 -12148.036217    593.182043                    
PC25  19673.827862   4066.852025 -19383.555706   -536.192241                    
PC32   7153.383444 -14264.150383 -22877.302653   -885.409257                    
PC33  24589.921020  13169.767300   -386.288209   -928.930329                    
PC35 -15125.359769   8006.493048 -22045.247879   -939.215212                    
PC34   5214.401920  26651.790497   6485.579260   -518.187265                    
PC36 -19405.440830  -4714.249075  19511.070594   -824.506733                    
PC37  16619.042933 -19185.748687  11628.058091   -866.098718                    
PC06  -7815.856732  34195.442327  24060.990996    241.708988                    
PC07 -18061.894918  22019.415280 -31017.363631   -116.401339                    
PC08 -23723.963436  33704.908838   8111.566206   -140.643352                    
PC09   1351.645930  40588.762831  12277.352726    375.985973                    
PC10  -2325.144683  25943.061077 -32972.646108   -719.320882                    
PC13 -12585.651513  34713.386476  20215.504462    302.020134                    
PC16  -3864.513949  36470.056388  21025.305819   -745.663800                    
PJ01 -24558.082454  23836.608456  29750.955701   -326.579872                    
PJ02 -35891.679444  18287.955649  -7958.181893     -1.651963                    
PJ03 -19946.872679  27543.211620 -20289.035784     -0.862510                    
EOF                                                                             
